{"type": "FeatureCollection", "features": [ {"type": "Feature", "properties": {"norad_id": 34001, "name": "COSMOS 2251 DEB", "group": "cosmos-2251-debris", "lat": 48.700959809184965, "lon": -59.49199804798218, "alt_km": 754.0079498286132, "timestamp": "2025-12-12T18:57:44.522483+00:00", "meta": {"OBJECT_NAME": "COSMOS 2251 DEB", "OBJECT_ID": "1993-036GL", "EPOCH": "2025-12-12T06:03:30.898944", "MEAN_MOTION": 14.37097701, "ECCENTRICITY": 0.00199285, "INCLINATION": 74.0388, "RA_OF_ASC_NODE": 282.4832, "ARG_OF_PERICENTER": 3.5131, "MEAN_ANOMALY": 147.2925, "EPHEMERIS_TYPE": 0, "CLASSIFICATION_TYPE": "U", "NORAD_CAT_ID": 34001, "ELEMENT_SET_NO": 999, "REV_AT_EPOCH": 88139, "BSTAR": 0.00033860249, "MEAN_MOTION_DOT": 9.82e-06, "MEAN_MOTION_DDOT": 0}, "tle": {"line1": "1 34001U 93036GL  25346.25244096  .00000982  00000+0  33860-3 0  9992", "line2": "2 34001  74.0388 282.4832 0019928   3.5131 147.2925 14.37097701881399"}}, "geometry": {"type": "Point", "coordinates": [-59.49199804798218, 48.700959809184965]}}, {"type": "Feature", "properties": {"norad_id": 34003, "name": "COSMOS 2251 DEB", "group": "cosmos-2251-debris", "lat": -67.56847724610205, "lon": -118.68680990211928, "alt_km": 1023.3699620485859, "timestamp": "2025-12-12T18:57:44.522493+00:00", "meta": {"OBJECT_NAME": "COSMOS 2251 DEB", "OBJECT_ID": "1993-036GN", "EPOCH": "2025-12-12T05:26:15.277344", "MEAN_MOTION": 13.84147254, "ECCENTRICITY": 0.0274236, "INCLINATION": 74.078, "RA_OF_ASC_NODE": 286.0079, "ARG_OF_PERICENTER": 38.1447, "MEAN_ANOMALY": 323.8739, "EPHEMERIS_TYPE": 0, "CLASSIFICATION_TYPE": "U", "NORAD_CAT_ID": 34003, "ELEMENT_SET_NO": 999, "REV_AT_EPOCH": 84418, "BSTAR": 0.0032157, "MEAN_MOTION_DOT": 4.774e-05, "MEAN_MOTION_DDOT": 0}, "tle": {"line1": "1 34003U 93036GN  25346.22656571  .00004774  00000+0  32157-2 0  9996", "line2": "2 34003  74.0780 286.0079 0274236  38.1447 323.8739 13.84147254844180"}}, "geometry": {"type": "Point", "coordinates": [-118.68680990211928, -67.56847724610205]}}, {"type": "Feature", "properties": {"norad_id": 34004, "name": "COSMOS 2251 DEB", "group": "cosmos-2251-debris", "lat": -57.119375579720796, "lon": -73.26753193817518, "alt_km": 714.2607452831771, "timestamp": "2025-12-12T18:57:44.522503+00:00", "meta": {"OBJECT_NAME": "COSMOS 2251 DEB", "OBJECT_ID": "1993-036GP", "EPOCH": "2025-12-11T23:21:26.138016", "MEAN_MOTION": 14.48998167, "ECCENTRICITY": 0.0033374, "INCLINATION": 74.0358, "RA_OF_ASC_NODE": 314.5469, "ARG_OF_PERICENTER": 326.8524, "MEAN_ANOMALY": 33.0543, "EPHEMERIS_TYPE": 0, "CLASSIFICATION_TYPE": "U", "NORAD_CAT_ID": 34004, "ELEMENT_SET_NO": 999, "REV_AT_EPOCH": 88019, "BSTAR": 0.0021188, "MEAN_MOTION_DOT": 8.073e-05, "MEAN_MOTION_DDOT": 0}, "tle": {"line1": "1 34004U 93036GP  25345.97321919  .00008073  00000+0  21188-2 0  9991", "line2": "2 34004  74.0358 314.5469 0033374 326.8524  33.0543 14.48998167880193"}}, "geometry": {"type": "Point", "coordinates": [-73.26753193817518, -57.119375579720796]}}, {"type": "Feature", "properties": {"norad_id": 34005, "name": "COSMOS 2251 DEB", "group": "cosmos-2251-debris", "lat": -30.028381533329824, "lon": 43.07313188080477, "alt_km": 770.5748034666749, "timestamp": "2025-12-12T18:57:44.522513+00:00", "meta": {"OBJECT_NAME": "COSMOS 2251 DEB", "OBJECT_ID": "1993-036GQ", "EPOCH": "2025-12-12T01:51:15.265728", "MEAN_MOTION": 14.40303618, "ECCENTRICITY": 0.00208236, "INCLINATION": 74.0444, "RA_OF_ASC_NODE": 214.8713, "ARG_OF_PERICENTER": 333.1316, "MEAN_ANOMALY": 143.6947, "EPHEMERIS_TYPE": 0, "CLASSIFICATION_TYPE": "U", "NORAD_CAT_ID": 34005, "ELEMENT_SET_NO": 999, "REV_AT_EPOCH": 88369, "BSTAR": 0.00015869498, "MEAN_MOTION_DOT": 4.78e-06, "MEAN_MOTION_DDOT": 0}, "tle": {"line1": "1 34005U 93036GQ  25346.07726002  .00000478  00000+0  15869-3 0  9997", "line2": "2 34005  74.0444 214.8713 0020823 333.1316 143.6947 14.40303618883696"}}, "geometry": {"type": "Point", "coordinates": [43.07313188080477, -30.028381533329824]}}, {"type": "Feature", "properties": {"norad_id": 34006, "name": "COSMOS 2251 DEB", "group": "cosmos-2251-debris", "lat": 50.47722268772925, "lon": -57.09501217674686, "alt_km": 571.8022747228579, "timestamp": "2025-12-12T18:57:44.522524+00:00", "meta": {"OBJECT_NAME": "COSMOS 2251 DEB", "OBJECT_ID": "1993-036GR", "EPOCH": "2025-12-12T04:43:38.894880", "MEAN_MOTION": 14.94696683, "ECCENTRICITY": 0.00114561, "INCLINATION": 74.0529, "RA_OF_ASC_NODE": 144.3779, "ARG_OF_PERICENTER": 90.5339, "MEAN_ANOMALY": 85.7301, "EPHEMERIS_TYPE": 0, "CLASSIFICATION_TYPE": "U", "NORAD_CAT_ID": 34006, "ELEMENT_SET_NO": 999, "REV_AT_EPOCH": 88660, "BSTAR": 0.0050900427, "MEAN_MOTION_DOT": 0.00055721, "MEAN_MOTION_DDOT": 0}, "tle": {"line1": "1 34006U 93036GR  25346.19697795  .00055721  00000+0  50900-2 0  9992", "line2": "2 34006  74.0529 144.3779 0011456  90.5339  85.7301 14.94696683886601"}}, "geometry": {"type": "Point", "coordinates": [-57.09501217674686, 50.47722268772925]}}, {"type": "Feature", "properties": {"norad_id": 34007, "name": "COSMOS 2251 DEB", "group": "cosmos-2251-debris", "lat": 54.727639770530146, "lon": 10.7000382137733, "alt_km": 658.2059503539604, "timestamp": "2025-12-12T18:57:44.522533+00:00", "meta": {"OBJECT_NAME": "COSMOS 2251 DEB", "OBJECT_ID": "1993-036GS", "EPOCH": "2025-12-12T07:13:25.812480", "MEAN_MOTION": 14.64781799, "ECCENTRICITY": 0.00443168, "INCLINATION": 74.0197, "RA_OF_ASC_NODE": 347.741, "ARG_OF_PERICENTER": 122.8591, "MEAN_ANOMALY": 237.6855, "EPHEMERIS_TYPE": 0, "CLASSIFICATION_TYPE": "U", "NORAD_CAT_ID": 34007, "ELEMENT_SET_NO": 999, "REV_AT_EPOCH": 89073, "BSTAR": 0.0010836997, "MEAN_MOTION_DOT": 5.836e-05, "MEAN_MOTION_DDOT": 0}, "tle": {"line1": "1 34007U 93036GS  25346.30099320  .00005836  00000+0  10837-2 0  9993", "line2": "2 34007  74.0197 347.7410 0044316 122.8591 237.6855 14.64781799890735"}}, "geometry": {"type": "Point", "coordinates": [10.7000382137733, 54.727639770530146]}}, {"type": "Feature", "properties": {"norad_id": 34008, "name": "COSMOS 2251 DEB", "group": "cosmos-2251-debris", "lat": 58.787882899742115, "lon": 122.23078850597464, "alt_km": 790.4820648397317, "timestamp": "2025-12-12T18:57:44.522554+00:00", "meta": {"OBJECT_NAME": "COSMOS 2251 DEB", "OBJECT_ID": "1993-036GT", "EPOCH": "2025-12-12T07:12:16.352928", "MEAN_MOTION": 14.3314589, "ECCENTRICITY": 0.00243008, "INCLINATION": 74.0342, "RA_OF_ASC_NODE": 331.3215, "ARG_OF_PERICENTER": 326.6127, "MEAN_ANOMALY": 143.7933, "EPHEMERIS_TYPE": 0, "CLASSIFICATION_TYPE": "U", "NORAD_CAT_ID": 34008, "ELEMENT_SET_NO": 999, "REV_AT_EPOCH": 87958, "BSTAR": 0.0002021984, "MEAN_MOTION_DOT": 5.31e-06, "MEAN_MOTION_DDOT": 0}, "tle": {"line1": "1 34008U 93036GT  25346.30018927  .00000531  00000+0  20220-3 0  9993", "line2": "2 34008  74.0342 331.3215 0024300 326.6127 143.7933 14.33145890879586"}}, "geometry": {"type": "Point", "coordinates": [122.23078850597464, 58.787882899742115]}}, {"type": "Feature", "properties": {"norad_id": 34009, "name": "COSMOS 2251 DEB", "group": "cosmos-2251-debris", "lat": 25.545352967460204, "lon": 148.98218199076098, "alt_km": 785.2088853350997, "timestamp": "2025-12-12T18:57:44.522566+00:00", "meta": {"OBJECT_NAME": "COSMOS 2251 DEB", "OBJECT_ID": "1993-036GU", "EPOCH": "2025-12-12T01:48:59.618592", "MEAN_MOTION": 14.33221332, "ECCENTRICITY": 0.00264854, "INCLINATION": 74.037, "RA_OF_ASC_NODE": 338.1501, "ARG_OF_PERICENTER": 47.9858, "MEAN_ANOMALY": 20.3921, "EPHEMERIS_TYPE": 0, "CLASSIFICATION_TYPE": "U", "NORAD_CAT_ID": 34009, "ELEMENT_SET_NO": 999, "REV_AT_EPOCH": 87936, "BSTAR": 0.00021674261, "MEAN_MOTION_DOT": 5.72e-06, "MEAN_MOTION_DDOT": 0}, "tle": {"line1": "1 34009U 93036GU  25346.07569003  .00000572  00000+0  21674-3 0  9993", "line2": "2 34009  74.0370 338.1501 0026485  47.9858  20.3921 14.33221332879360"}}, "geometry": {"type": "Point", "coordinates": [148.98218199076098, 25.545352967460204]}}, {"type": "Feature", "properties": {"norad_id": 34010, "name": "COSMOS 2251 DEB", "group": "cosmos-2251-debris", "lat": 38.46364972925214, "lon": -63.617200404380135, "alt_km": 503.63526119804465, "timestamp": "2025-12-12T18:57:44.522576+00:00", "meta": {"OBJECT_NAME": "COSMOS 2251 DEB", "OBJECT_ID": "1993-036GV", "EPOCH": "2025-12-12T06:08:12.786720", "MEAN_MOTION": 15.1853705, "ECCENTRICITY": 0.00048798, "INCLINATION": 73.9979, "RA_OF_ASC_NODE": 284.3244, "ARG_OF_PERICENTER": 67.1958, "MEAN_ANOMALY": 292.9754, "EPHEMERIS_TYPE": 0, "CLASSIFICATION_TYPE": "U", "NORAD_CAT_ID": 34010, "ELEMENT_SET_NO": 999, "REV_AT_EPOCH": 89278, "BSTAR": 0.0061075854, "MEAN_MOTION_DOT": 0.00128419, "MEAN_MOTION_DDOT": 0}, "tle": {"line1": "1 34010U 93036GV  25346.25570355  .00128419  00000+0  61076-2 0  9997", "line2": "2 34010  73.9979 284.3244 0004879  67.1958 292.9754 15.18537050892782"}}, "geometry": {"type": "Point", "coordinates": [-63.617200404380135, 38.46364972925214]}}, {"type": "Feature", "properties": {"norad_id": 34011, "name": "COSMOS 2251 DEB", "group": "cosmos-2251-debris", "lat": 18.91346610896283, "lon": 144.42040612799602, "alt_km": 759.670968909114, "timestamp": "2025-12-12T18:57:44.522587+00:00", "meta": {"OBJECT_NAME": "COSMOS 2251 DEB", "OBJECT_ID": "1993-036GW", "EPOCH": "2025-12-11T23:54:25.193088", "MEAN_MOTION": 14.4176453, "ECCENTRICITY": 0.0035537, "INCLINATION": 74.0154, "RA_OF_ASC_NODE": 331.5293, "ARG_OF_PERICENTER": 55.2711, "MEAN_ANOMALY": 305.1783, "EPHEMERIS_TYPE": 0, "CLASSIFICATION_TYPE": "U", "NORAD_CAT_ID": 34011, "ELEMENT_SET_NO": 999, "REV_AT_EPOCH": 87905, "BSTAR": 0.0012457, "MEAN_MOTION_DOT": 4.074e-05, "MEAN_MOTION_DDOT": 0}, "tle": {"line1": "1 34011U 93036GW  25345.99612492  .00004074  00000+0  12457-2 0  9996", "line2": "2 34011  74.0154 331.5293 0035537  55.2711 305.1783 14.41764530879053"}}, "geometry": {"type": "Point", "coordinates": [144.42040612799602, 18.91346610896283]}}]}